0 BEESAT
1 35933U 09051C   13283.58469218  .00000587  00000-0  14986-3 0  4208
2 35933 098.3642 031.5483 0007037 087.4235 272.7767 14.54107663214706
0 BEESAT
1 35933U 09051C   13286.13070260  .00000663  00000-0  16764-3 0  4220
2 35933 098.3648 034.0922 0006975 080.8102 279.3883 14.54110701215078
0 BEESAT
1 35933U 09051C   13287.30048940  .00000753  00000-0  18897-3 0  4230
2 35933 098.3650 035.2612 0006953 077.6963 282.5011 14.54111940215249
0 BEESAT
1 35933U 09051C   13288.47027400  .00001073  00000-0  26469-3 0  4248
2 35933 098.3651 036.4302 0006889 074.5202 285.6755 14.54115209215419
0 BEESAT
1 35933U 09051C   13289.84648852  .00000876  00000-0  21809-3 0  4254
2 35933 098.3652 037.8056 0006817 070.7494 289.4439 14.54118216215617
0 BEESAT
1 35933U 09051C   13290.87864733  .00000892  00000-0  22184-3 0  4263
2 35933 098.3651 038.8371 0006754 067.8716 292.3197 14.54120321215761
0 BEESAT
1 35933U 09051C   13292.11723574  .00000928  00000-0  23028-3 0  4278
2 35933 098.3650 040.0749 0006715 064.7294 295.4598 14.54122159215948
0 BEESAT
1 35933U 09051C   13293.14939159  .00000988  00000-0  24469-3 0  4287
2 35933 098.3649 041.1064 0006676 061.8540 298.3330 14.54124120216099
0 BEESAT
1 35933U 09051C   13294.80083809  .00001019  00000-0  25192-3 0  4294
2 35933 098.3649 042.7568 0006606 057.2600 302.9232 14.54128184216338
0 BEESAT
1 35933U 09051C   13296.17704046  .00000988  00000-0  24444-3 0  4304
2 35933 098.3649 044.1318 0006557 053.5304 306.6496 14.54131434216539
